[{"OBJECT_NAME":"STARLINK-1470","OBJECT_ID":"2020-038AU","EPOCH":"2026-03-09T14:36:51.476832","MEAN_MOTION":15.2807486,"ECCENTRICITY":0.0002444,"INCLINATION":53.048,"RA_OF_ASC_NODE":174.6971,"ARG_OF_PERICENTER":12.8687,"MEAN_ANOMALY":347.2373,"EPHEMERIS_TYPE":0,"CLASSIFICATION_TYPE":"U","NORAD_CAT_ID":45772,"ELEMENT_SET_NO":999,"REV_AT_EPOCH":31706,"BSTAR":0.0019687,"MEAN_MOTION_DOT":0.00054678,"MEAN_MOTION_DDOT":0},{"OBJECT_NAME":"STARLINK-35312","OBJECT_ID":"2025-223N","EPOCH":"2026-03-09T21:29:07.586880","MEAN_MOTION":15.30224934,"ECCENTRICITY":6.52e-5,"INCLINATION":53.1586,"RA_OF_ASC_NODE":293.4649,"ARG_OF_PERICENTER":66.1851,"MEAN_ANOMALY":293.9218,"EPHEMERIS_TYPE":0,"CLASSIFICATION_TYPE":"U","NORAD_CAT_ID":65866,"ELEMENT_SET_NO":999,"REV_AT_EPOCH":2423,"BSTAR":0.00076541431,"MEAN_MOTION_DOT":0.00022396,"MEAN_MOTION_DDOT":0}]
